{"type": "FeatureCollection", "features": [ {"type": "Feature", "properties": {"norad_id": 66911, "name": "1998-067XX", "group": "stations", "lat": -6.778440911947301, "lon": -27.531741792487104, "alt_km": 409.6990829366423, "timestamp": "2025-12-11T18:59:44.831781+00:00", "meta": {"OBJECT_NAME": "1998-067XX", "OBJECT_ID": "1998-067XX", "EPOCH": "2025-12-11T04:16:32.481408", "MEAN_MOTION": 15.5166419, "ECCENTRICITY": 0.00051917, "INCLINATION": 51.6299, "RA_OF_ASC_NODE": 150.1129, "ARG_OF_PERICENTER": 201.0739, "MEAN_ANOMALY": 159.0038, "EPHEMERIS_TYPE": 0, "CLASSIFICATION_TYPE": "U", "NORAD_CAT_ID": 66911, "ELEMENT_SET_NO": 999, "REV_AT_EPOCH": 136, "BSTAR": 0.0016096113, "MEAN_MOTION_DOT": 0.00098261, "MEAN_MOTION_DDOT": 0}, "tle": {"line1": "1 66911U 98067XX  25345.17815372  .00098261  00000+0  16096-2 0  9995", "line2": "2 66911  51.6299 150.1129 0005191 201.0739 159.0038 15.51664190  1368"}}, "geometry": {"type": "Point", "coordinates": [-27.531741792487104, -6.778440911947301]}}, {"type": "Feature", "properties": {"norad_id": 66912, "name": "1998-067XY", "group": "stations", "lat": 7.865111725863629, "lon": -39.18091145048166, "alt_km": 411.31721031595043, "timestamp": "2025-12-11T18:59:44.831794+00:00", "meta": {"OBJECT_NAME": "1998-067XY", "OBJECT_ID": "1998-067XY", "EPOCH": "2025-12-10T17:31:22.847520", "MEAN_MOTION": 15.50838333, "ECCENTRICITY": 0.00047912, "INCLINATION": 51.6309, "RA_OF_ASC_NODE": 152.3712, "ARG_OF_PERICENTER": 213.0974, "MEAN_ANOMALY": 146.9716, "EPHEMERIS_TYPE": 0, "CLASSIFICATION_TYPE": "U", "NORAD_CAT_ID": 66912, "ELEMENT_SET_NO": 999, "REV_AT_EPOCH": 129, "BSTAR": 0.0011490073, "MEAN_MOTION_DOT": 0.00067697, "MEAN_MOTION_DDOT": 0}, "tle": {"line1": "1 66912U 98067XY  25344.73012555  .00067697  00000+0  11490-2 0  9991", "line2": "2 66912  51.6309 152.3712 0004791 213.0974 146.9716 15.50838333  1293"}}, "geometry": {"type": "Point", "coordinates": [-39.18091145048166, 7.865111725863629]}}]}